BEESAT-4                
1 41619U 16040W   23012.13561186  .00041853  00000+0  10769-2 0  9996
2 41619  97.1877  62.7927 0009056  86.4815 273.7466 15.39088718352721
RAVAN                   
1 41849U 16067B   23011.97186429  .00008828  00000+0  66617-3 0  9993
2 41849  98.0128 160.4543 0017443 354.8588   5.2454 15.02558697337280
CELTEE 1                
1 41850U 16067C   23012.65828340  .00005147  00000+0  42330-3 0  9993
2 41850  98.0207 155.4450 0006108  12.3611 347.7760 14.99583830337095
OPTICUBE 04             
1 41851U 16067D   23012.82257470  .00002580  00000+0  22064-3 0  9993
2 41851  98.0234 154.3569 0009417  13.6592 346.4883 14.98535597337057
AEROCUBE 8D             
1 41852U 16067E   23012.92016109  .00006105  00000+0  50033-3 0  9991
2 41852  98.0176 154.6879 0006699  10.6696 349.4667 14.99641251337072
AEROCUBE 8C             
1 41853U 16067F   23012.63808016  .00005433  00000+0  44595-3 0  9995
2 41853  98.0174 154.2008 0009378 353.9577   6.1531 14.99616832337028
PROMETHEUS 2-1          
1 41854U 16067G   23012.19471277  .00010198  00000+0  78512-3 0  9992
2 41854  98.0478 155.5403 0018255  20.9495 339.2472 15.01740329337042
PROMETHEUS 2-3          
1 41855U 16067H   23012.65233590  .00009543  00000+0  73582-3 0  9992
2 41855  98.0403 156.0431 0015994  34.4132 325.8124 15.01733985337116
INS-1B                  
1 41954U 17008G   23012.89209324  .00037139  00000+0  96109-3 0  9994
2 41954  97.2289  73.9979 0005674 191.5699 168.5418 15.38965027328864
BGUSAT                  
1 41999U 17008BD  23012.15023362  .00211468  00000+0  19135-2 0  9990
2 41999  97.2533  89.2621 0001565 172.7340 187.3944 15.67417086328961
DIDO-2                  
1 42000U 17008BE  23012.88887832  .00020089  00000+0  64388-3 0  9992
2 42000  97.2287  72.0150 0005582 224.1605 135.9192 15.32373649328093
PEASSS                  
1 42015U 17008BV  23012.62826822  .00029027  00000+0  77596-3 0  9998
2 42015  97.2357  77.0354 0003588 207.5357 152.5698 15.38024578328840
AL-FARABI 1             
1 42016U 17008BW  23012.93598834  .00050590  00000+0  10978-2 0  9991
2 42016  97.2425  81.8169 0002908 199.4631 160.6507 15.44223050329251
NAYIF-1 (EO-88)         
1 42017U 17008BX  23012.92352069  .00053507  00000+0  11478-2 0  9996
2 42017  97.2416  81.8577 0003063 198.8179 161.2957 15.44550054329284
UCLSAT                  
1 42765U 17036A   23013.06001158  .00033300  00000+0  93873-3 0  9992
2 42765  97.1702  54.6156 0006716 299.1177  60.9395 15.36329342309366
LITUANICASAT-2          
1 42768U 17036D   23012.07646164  .00110110  00000+0  17228-2 0  9991
2 42768  97.1756  59.5627 0006224 266.3902  93.6640 15.53351978309401
AALTO-1                 
1 42775U 17036L   23011.54419048  .00015567  00000+0  55263-3 0  9991
2 42775  97.1738  46.6359 0010113 313.6960  46.3442 15.29079123308530
URSA MAIOR              
1 42776U 17036M   23012.08064234  .00018043  00000+0  62017-3 0  9992
2 42776  97.1750  48.1400 0009649 309.4556  50.5831 15.30106978308669
COMPASS 2               
1 42777U 17036N   23012.38121952  .00058525  00000+0  13132-2 0  9999
2 42777  97.1760  57.5424 0006146 280.7951  79.2606 15.43175414309237
DIAMOND RED             
1 42783U 17036U   23012.82804456  .00020725  00000+0  67242-3 0  9995
2 42783  97.1748  51.6504 0008045 310.8695  49.1850 15.31958074308946
PEGASUS                 
1 42784U 17036V   23011.83273207  .00028977  00000+0  86107-3 0  9998
2 42784  97.1732  52.4025 0007411 308.4019  51.6559 15.34696816308902
DIAMOND GREEN           
1 42785U 17036W   23012.82276801  .00021007  00000+0  67762-3 0  9995
2 42785  97.1748  51.7247 0007800 312.6239  47.4345 15.32142896308932
DIAMOND BLUE            
1 42786U 17036X   23012.36677740  .00022380  00000+0  72354-3 0  9990
2 42786  97.1749  51.2710 0007972 314.9852  45.0743 15.32057496308869
NUDTSAT                 
1 42787U 17036Y   23013.01950986  .00058736  00000+0  12188-2 0  9992
2 42787  97.1730  59.8623 0005561 288.1147  71.9662 15.45493982309315
SUCHAI                  
1 42788U 17036Z   23011.82707686  .00037846  00000+0  10049-2 0  9990
2 42788  97.1725  54.7758 0006427 300.9912  59.0702 15.38163685309125
SKCUBE                  
1 42789U 17036AA  23011.84055486  .00032865  00000+0  92066-3 0  9993
2 42789  97.1725  53.9210 0006657 303.0985  56.9620 15.36528771308997
VZLUSAT-1               
1 42790U 17036AB  23011.37816200  .00058581  00000+0  12422-2 0  9992
2 42790  97.1734  58.1326 0004988 288.6110  71.4597 15.44860564309205
ROBUSTA 1B              
1 42792U 17036AD  23012.80154906  .00035518  00000+0  95745-3 0  9996
2 42792  97.1721  55.6452 0006065 297.9685  62.0946 15.37712478309209
CICERO 6                
1 42793U 17036AE  23012.16405050  .00018457  00000+0  61025-3 0  9992
2 42793  97.1726  51.4236 0006843 315.4058  44.6633 15.31380657308968
CORVUS BC2              
1 42846U 17042X   23012.83103580  .00002569  00000+0  24828-3 0  9992
2 42846  97.3972 223.0742 0009901  23.0245 337.1417 14.93586551299528
CORVUS BC1              
1 42847U 17042Y   23012.83180836  .00002669  00000+0  25724-3 0  9999
2 42847  97.3972 223.4120 0009570  22.2606 337.9029 14.93668239299539
MIRATA                  
1 43015U 17073C   23012.98016116  .00015867  00000+0  10882-2 0  9998
2 43015  97.6525 265.6604 0226200 210.1706 148.6324 14.87583171278377
MAKERSAT 0              
1 43016U 17073D   23011.62765834  .00009798  00000+0  70166-3 0  9995
2 43016  97.6528 263.3091 0236435 221.2663 137.0474 14.84763101278055
CORVUS BC3              
1 43118U 18004H   23012.66603408  .00018805  00000+0  62385-3 0  9999
2 43118  97.3414  87.8951 0008201 350.8170   9.2920 15.31263090278188
MICROMAS-2A             
1 43131U 18004W   23012.21665128  .00100404  00000+0  16350-2 0  9999
2 43131  97.3551  98.6066 0005327 318.1228  41.9616 15.52278602278755
CICERO 7                
1 43143U 18004AJ  23012.45952725  .00028476  00000+0  68965-3 0  9998
2 43143  97.3567  96.6725 0004544 344.5082  15.6024 15.41049214278671
GOMX-4B                 
1 43196U 18015E   23012.65032643  .00016009  00000+0  54360-3 0  9991
2 43196  97.5575 159.8074 0017142  41.3205 318.9329 15.30438748275111
GOMX-4A                 
1 43197U 18015F   23013.01946049  .00015561  00000+0  49290-3 0  9995
2 43197  97.5565 161.6081 0016502  38.3485  57.3956 15.32694128275270
AEROCUBE 12A            
1 43556U 18046C   23012.11145442  .00061461  00000+0  10250-2 0  9999
2 43556  51.6315 239.3672 0006476 101.2547 258.9170 15.51364002251558
AEROCUBE 12B            
1 43557U 18046D   23011.95110408  .00044804  00000+0  89990-3 0  9995
2 43557  51.6332 249.4451 0007180  86.3471 273.8337 15.46180941251358
SURFSAT                 
1 43614U 18070B   23013.01714064  .00552701  12827-3  12996-2 0  9998
2 43614  92.9907 188.8879 0004813 289.8361  70.2405 15.96887134243883
CP7 (DAVE)              
1 43615U 18070C   23012.95509356  .00283939  00000+0  12174-2 0  9995
2 43615  92.9943 188.2574 0005527 278.6113  81.4539 15.84378871243774
CUBEBEL-1 (BSUSAT-1)    
1 43666U 18083E   23012.94048525  .00021989  00000+0  80180-3 0  9998
2 43666  97.4009  44.6226 0010562 322.3162 123.8880 15.28128556233419
CICERO 10               
1 43690U 18088A   23012.93015671  .00024334  00000+0  85587-3 0  9998
2 43690  85.0360 176.9362 0013859  89.5409 270.7425 15.29128580231690
IRVINE01                
1 43693U 18088D   23012.15961105  .00423416  00000+0  26406-2 0  9995
2 43693  85.0135 166.7786 0008613 346.7094  13.3948 15.75708614232538
PROXIMA I               
1 43694U 18088E   23012.52566894  .00021145  00000+0  70398-3 0  9996
2 43694  85.0292 173.3527 0016739  60.4073 299.8839 15.30871259231890
PROXIMA II              
1 43696U 18088G   23012.79206806  .00020412  00000+0  68051-3 0  9990
2 43696  85.0296 173.2046 0016806  59.4733 300.8170 15.30826592231933
FACSAT-1                
1 43721U 18096C   23012.93284646  .00062417  00000+0  11655-2 0  9990
2 43721  97.3327  98.7857 0010853  18.8487  97.6593 15.48498227230236
CENTAURI-2              
1 43722U 18096D   23012.22176797  .00135277  00000+0  16951-2 0  9999
2 43722  97.3360 101.9567 0008777 359.5786   0.5462 15.59267133230340
SIRION PATHFINDER-2     
1 43759U 18099B   23012.62562886  .00003608  00000+0  31594-3 0  9997
2 43759  97.5955  78.7336 0012580 281.1781  78.8027 14.97254233224334
CORVUS BC4              
1 43767U 18099K   23012.12810183  .00004939  00000+0  43739-3 0  9999
2 43767  97.5913  76.4458 0009523 291.1268  68.8935 14.96665822224179
MOVE-II                 
1 43780U 18099Y   23012.93929267  .00010573  00000+0  85541-3 0  9995
2 43780  97.6045  80.4635 0009766 298.5825  61.4415 14.99907672224438
SPACEBEE-7              
1 43816U 18099BL  23012.16198847  .00007946  00000+0  65314-3 0  9998
2 43816  97.6019  80.4015 0012049 276.0570  83.9280 14.99361167223900
SPACEBEE-5              
1 43817U 18099BM  23012.42191709  .00026992  00000+0  18419-2 0  9993
2 43817  97.6122  85.2968 0004332 266.7009  93.3722 15.06165062224165
SPACEBEE-6              
1 43818U 18099BN  23012.93032002  .00013411  00000+0  10446-2 0  9994
2 43818  97.6117  82.5538 0014488 286.2026  73.7604 15.01256546224234
SHIELDS 1               
1 43850U 18104B   23012.97856474  .00008587  00000+0  33710-3 0  9996
2 43850  85.0270 273.0093 0012131 202.9680 157.1023 15.25485040226422
STF-1                   
1 43852U 18104D   23012.45803401  .00026337  00000+0  84800-3 0  9992
2 43852  85.0279 272.7780 0009313 211.1879 148.8817 15.32036746226478
ZACUBE-2                
1 43907U 18111AH  23013.00347876  .00017891  00000+0  57884-3 0  9999
2 43907  97.1623 256.9937 0019657  55.4178  57.7896 15.31917035225323
LUME 1                  
1 43908U 18111AJ  23012.63826877  .00025172  00000+0  72020-3 0  9991
2 43908  97.1636 259.1448 0017749  48.5614 311.7152 15.35782893225434
